{
  "norad_id": 64913,
  "name": "STARLINK-34659",
  "history": [
    {
      "epoch": "2026-03-28T18:03:22.614048Z",
      "apogee_km": 475.67438381481134,
      "perigee_km": 474.72163318192906,
      "latitude_deg": 8.224847531747493e-05,
      "longitude_deg": 160.02275507697308,
      "height_km": 476.1849826710128,
      "semi_major_axis_km": 6853.3350084983695,
      "eccentricity": 6.951e-05,
      "inclination_deg": 53.1573,
      "raan_deg": 257.0352,
      "arg_perigee_deg": 100.6966,
      "mean_anomaly_deg": 259.4114,
      "mean_motion_rev_day": 15.30205714
    }
  ]
}