{"fetched_at":"2026-03-29T16:36:15Z","count":15609,"tles":[{"name":"STARLINK-34659","line1":"1 64913U 25157K   26087.75234507  .00021878  00000+0  74847-3 0  9997","line2":"2 64913  53.1573 257.0352 0000695 100.6966 259.4114 15.30205714 38994","category":"Starlink"}]}